DELTA 1 DEB
1 21598U 75052HS  11227.33769319 -.00000007  00000-0  10000-3 0  3196
2 21598 099.5764 189.1477 0354260 259.3142 096.7869 12.82770934948863
DELTA 1 DEB
1 21599U 75052HT  11216.13387665 -.00000011  00000-0  10000-3 0  6584
2 21599 099.8190 097.2128 0448330 289.8639 065.2177 12.65154008931025
DELTA 1 DEB
1 21601U 75052HV  11225.26259400 -.00000008  00000-0  10000-3 0  2321
2 21601 099.8194 319.3322 0538014 192.8948 165.8575 12.48621692919329
DELTA 1 DEB
1 21602U 75052HW  11227.66976473  .00000014  00000-0  10000-3 0  5828
2 21602 099.8316 278.8206 0085399 269.9744 089.1613 13.43370984982725
ARIANE 40 R/B
1 21610U 91050F   11227.54341957  .00000192  00000-0  76635-4 0  6930
2 21610 098.7340 213.5351 0003067 155.6219 204.5113 14.39353496 53144
SL-12 DEB *
1 21622U 87036K   11204.53371395  .00013824  00000-0  82570-1 0  8058
2 21622 064.6577 037.3761 0660776 267.6645 018.1258 12.06370359754721
SL-12 DEB *
1 21623U 87036L   11226.83809221 +.00005412 +00000-0 +42641-2 0 00704
2 21623 062.7964 161.9490 3320302 013.7699 353.4854 08.30083065640182
CRRES DEB (CANISTER)
1 21634U 90065L   11221.26728922  .00000369  00000-0  27785-3 0  1263
2 21634 018.0030 269.7185 6999496 318.6711 005.7119 02.58408686175369
CRRES DEB (CANISTER)
1 21635U 90065M   11222.18170028  .00000734  00000-0  51823-3 0  2407
2 21635 017.9385 233.3993 6985248 016.4385 357.9879 02.61890735187985
CRRES DEB (CANISTER)
1 21637U 90065P   11225.98139559 -.00000082 +00000-0 +40171-3 0 03158
2 21637 017.7948 165.3577 6956957 147.5476 286.2374 02.63476907178914
TDRS 5
1 21639U 91054B   11226.96087671  .00000086  00000-0  10000-3 0  8892
2 21639 011.5476 046.1417 0012602 352.5376 102.6974 01.00266537 73371
IUS R/B(1)
1 21640U 91054C   11228.02133636  .00002190  00000-0  67063-3 0  9155
2 21640 026.3341 204.7912 6951109 040.8679 354.2977 02.69775838183222
IUS R/B(2)
1 21641U 91054D   11224.84376710 -.00000376 +00000-0 +10000-3 0 09013
2 21641 014.7572 029.0025 0031499 204.5200 155.3922 01.00347951071565
COSMOS 2054 DEB
1 21648U 89101G   11223.18879941 -.00000192 +00000-0 +10000-3 0 04549
2 21648 014.0823 027.2573 0023432 171.4859 188.6169 00.97851851063020
INTELSAT 605
1 21653U 91055A   11225.66573527  .00000069  00000-0  00000+0 0  1041
2 21653 006.3217 063.5239 0002115 002.7855 357.3838 00.99324023 73124
ARIANE 44L R/B
1 21654U 91055B   11228.05850175  .00797445 -11201-7  99479-3 0  1850
2 21654 006.9413 111.5349 4818918 084.8444 326.7602 06.14864801228363
METEOR 3-5
1 21655U 91056A   11227.84515738  .00000051  00000-0  10000-3 0  1839
2 21655 082.5594 008.6143 0013772 014.0808 346.0685 13.17027470961579
SL-14 R/B
1 21656U 91056B   11226.95274745 +.00000051 +00000-0 +10000-3 0 06713
2 21656 082.5510 008.7551 0014164 015.8053 344.3509 13.17016659961471
SL-12 DEB *
1 21657U 87036M   11228.05657833  .00002342  00000-0  16464-1 0  6334
2 21657 064.8908 211.6068 1919673 099.2428 282.9326 10.01036355627968
WESTFORD NEEDLES
1 21660U 63014FG  11227.19113848  .00000005  00000-0  10000-3 0  9570
2 21660 086.1403 302.6963 1930621 346.8020 008.6551 08.80351519591834
COSMOS 2154
1 21666U 91059A   11227.88536181  .00000030  00000-0  15676-4 0  9956
2 21666 082.9068 172.7692 0025464 151.1158 209.1409 13.73156827  1293
SL-8 R/B
1 21667U 91059B   11227.41011037  .00000046  00000-0  32000-4 0  3191
2 21667 082.9079 157.1670 0022625 078.5943 281.7753 13.74916808  2607
BS-3B (YURI 3B)
1 21668U 91060A   11225.79103764 -.00000280  00000-0  10000-3 0  5707
2 21668 010.3067 041.8650 0008381 029.8282 330.3308 00.98792454 75816
DELTA 1 DEB
1 21674U 75052JA  11228.13197004  .00001279  00000-0  58551-3 0  5169
2 21674 100.0812 288.1391 0170336 170.3230 190.1298 14.16146180 37509
DELTA 1 DEB
1 21677U 75052JD  11227.08625154 -.00000007  00000-0  10000-3 0  8852
2 21677 099.9101 275.8712 0482829 323.5440 033.3327 12.70664921939684
DELTA 1 DEB
1 21678U 75052JE  11226.31827741 +.00001203 +00000-0 +25536-2 0 01382
2 21678 100.0164 357.5696 0377501 229.8291 126.9194 13.09244873964726
DELTA 1 DEB
1 21680U 75052JG  11228.01929811 -.00000008  00000-0  10000-3 0  7846
2 21680 099.5688 068.9115 0380282 204.9542 153.2776 12.71546675935083
DELTA 1 DEB
1 21682U 75052JJ  11227.28727914 -.00000005  00000-0  10000-3 0  4581
2 21682 099.3911 338.0463 0886191 124.8002 243.9907 11.69572844860106
DELTA 1 DEB
1 21686U 75052JN  11228.06940316  .00001373  00000-0  11114-2 0  6581
2 21686 099.9982 076.6194 0220757 296.8525 061.0227 13.81502056999280
IRS 1B
1 21688U 91061A   11228.04633973 -.00000133  00000-0 -65451-4 0  2033
2 21688 098.7437 208.1356 0025397 100.2498 260.1545 13.96974282911904
SL-3 R/B
1 21689U 91061B   11228.09697106 -.00000200  00000-0 -10026-3 0  5526
2 21689 099.4258 203.2744 0025134 154.7785 205.4628 14.01580665 21050
SCOUT G-1 DEB
1 21691U 91045E   11227.12557550  .00000411  00000-0  11686-3 0  1769
2 21691 089.8229 016.0888 0014705 217.1730 142.8443 14.43857687 56547
TITAN 3C TRANSTAGE DEB
1 21692U 65108AF  11226.78242173 -.00000551  00000-0 -25196-2 0  9523
2 21692 028.1365 103.7152 6213584 002.4506 359.6331 03.50360485215352
M-3S2 R/B
1 21695U 91062B   11227.87018232  .00004619  00000-0  16347-3 0   596
2 21695 031.3255 068.6133 0071969 127.9090 232.8101 15.24922147 94378
UARS
1 21701U 91063B   11228.08454400  .00124574  16514-4  31161-3 0  4926
2 21701 056.9554 086.7897 0019163 309.3765 050.5771 15.95288625102914
COSMOS 2155
1 21702U 91064A   11226.44446274 -.00000217 +00000-0 +10000-3 0 05518
2 21702 013.2178 031.3524 0002400 343.7319 016.3318 01.00387642072989
SL-12 R/B(2)
1 21703U 91064B   11227.60571222  .00000093  00000-0  10000-3 0  2541
2 21703 013.3007 031.6952 0003997 313.6607 046.3765 00.99894260 66010
MOLNIYA 3-41
1 21706U 91065A   11226.09849005 -.00000938  00000-0  38675-3 0  8671
2 21706 063.1625 287.1884 7385448 284.3505 010.3143 02.04344264146007
SL-8 DEB
1 21711U 91041D   11227.74458568  .00000340  00000-0  11175-3 0  8968
2 21711 074.0252 128.5694 0014184 153.2308 206.9520 14.41935283 57443
SCOUT G-1 DEB
1 21712U 91045F   11227.75287614  .00000221  00000-0  90671-4 0   156
2 21712 089.2852 318.5224 0138716 279.9194 078.6359 14.19312628 40044
THORAD AGENA D DEB
1 21721U 70025QG  11226.52252715  .00000029  00000-0  10000-3 0   523
2 21721 100.1612 225.0054 0005923 247.6359 112.4554 13.62266485985321
SL-8 DEB
1 21722U 91009BY  11226.84927220 -.00000005 +00000-0 +10000-3 0 08123
2 21722 074.0541 170.6125 0370065 192.5698 166.5883 11.77026845854386
COSMOS 397 DEB
1 21723U 71015DW  11227.34944869  .00001046  00000-0  25343-3 0  8775
2 21723 065.7038 358.9356 0516314 287.5783 066.5806 13.98688648998878
SL-8 DEB
1 21724U 91009BZ  11226.76292335 -.00000002 +00000-0 +10000-3 0 08079
2 21724 073.9821 113.1456 0208251 102.7127 259.7285 12.20179719885566
SL-12 DEB
1 21725U 87036N   11226.48483294 -.00000028  00000-0  10000-3 0  9507
2 21725 064.8119 281.9547 1282778 107.3621 265.9995 10.68073366733917
ANIK E1
1 21726U 91067A   11227.01900100 -.00000049  00000-0  10000-3 0  4628
2 21726 007.6301 060.6079 0002482 181.2774 178.8781 00.99167109 63529
ARIANE 44P R/B
1 21727U 91067B   11225.80652542 -.00000092  00000-0  43636-3 0  7507
2 21727 004.0263 123.3938 7192029 221.5512 052.6535 02.30422233128551
COSMOS 2157
1 21728U 91068A   11226.95842149 +.00000029 +00000-0 +10000-3 0 05472
2 21728 082.5781 181.4501 0002977 200.6181 159.4789 12.63122416916609
COSMOS 2158
1 21729U 91068B   11226.97414396 +.00000029 +00000-0 +10000-3 0 06521
2 21729 082.5825 177.6782 0005045 113.3984 246.7639 12.63915806917177
COSMOS 2159
1 21730U 91068C   11227.89472522  .00000030  00000-0  10000-3 0  5554
2 21730 082.5835 159.4483 0015034 037.2595 322.9536 12.65905229918733
COSMOS 2160
1 21731U 91068D   11227.23266504  .00000029  00000-0  10000-3 0  5440
2 21731 082.5862 173.6103 0009200 095.1684 265.0459 12.64563466917676
COSMOS 2161
1 21732U 91068E   11226.91768674 +.00000029 +00000-0 +10000-3 0 05721
2 21732 082.5777 162.7462 0011661 073.6211 286.6162 12.65138822918047
COSMOS 2162
1 21733U 91068F   11226.93969665 +.00000028 +00000-0 +10000-3 0 05502
2 21733 082.5843 193.7949 0005508 278.0685 081.9780 12.62334771916043
SL-14 R/B
1 21734U 91068G   11227.40523808  .00000026  00000-0  10000-3 0  6241
2 21734 082.5771 255.7088 0106472 239.8688 119.1814 12.54204671910443
SL-8 DEB
1 21750U 91009CQ  11226.92131471 -.00000004 +00000-0 +10000-3 0 00275
2 21750 074.0691 056.6968 0092930 296.8366 062.3215 12.27589327912554
SL-12 DEB
1 21752U 83127J   11225.50924691 -.00000056  00000-0  10000-3 0  6617
2 21752 053.9303 320.2276 1300807 133.1705 238.5272 10.99833346703772
DELTA 1 DEB
1 21754U 75052JQ  11228.09052238  .00000008  00000-0  10000-3 0  6619
2 21754 099.7875 272.9093 0077341 016.7780 343.5733 13.33536878974969
GORIZONT 24
1 21759U 91074A   11226.29940272 -.00000209  00000-0  10000-3 0  1631
2 21759 013.3496 033.7839 0017307 111.1424 249.1217 00.98444091 71673
SL-12 R/B(2)
1 21762U 91074D   11226.89229436 -.00000282  00000-0  10000-3 0  1443
2 21762 013.1564 032.7121 0005042 017.1363 342.9559 00.99704003 65637
INTELSAT 601
1 21765U 91075A   11228.12850936  .00000111  00000-0  10000-3 0  1956
2 21765 006.3498 062.5179 0000708 128.2665 227.1074 01.00273313 72336
ARIANE 44L R/B
1 21766U 91075B   11228.16402060  .00001526  00000-0  72955-3 0  9262
2 21766 007.2163 236.9561 5706843 332.3291 006.3326 04.42997593232831
CRRES DEB (CANISTER)
1 21777U 90065Q   11226.49267585 -.00000085  00000-0  00000+0 0  9074
2 21777 018.6803 080.5493 6950794 019.4080 357.6385 02.39814707153088
CRRES DEB (CANISTER)
1 21778U 90065R   11225.80015213  .00000392  00000-0  56468-3 0  2467
2 21778 018.1111 052.7365 7080777 048.4838 353.7324 02.48623108176004
COSMOS 2165
1 21779U 91077A   11227.73998959  .00000029  00000-0  10000-3 0   808
2 21779 082.6037 093.4616 0011560 154.2372 205.9301 12.64781406912146
